{"type": "FeatureCollection", "features": [ {"type": "Feature", "properties": {"norad_id": 34529, "name": "IRIDIUM 33 DEB", "group": "iridium-33-debris", "lat": -74.77084558535401, "lon": 21.069739229673445, "alt_km": 765.3061050025317, "timestamp": "2025-12-14T16:47:41.067896+00:00", "meta": {"OBJECT_NAME": "IRIDIUM 33 DEB", "OBJECT_ID": "1997-051HW", "EPOCH": "2025-12-13T04:28:09.694848", "MEAN_MOTION": 14.40616367, "ECCENTRICITY": 0.00048664, "INCLINATION": 86.3641, "RA_OF_ASC_NODE": 35.2216, "ARG_OF_PERICENTER": 175.3623, "MEAN_ANOMALY": 184.7623, "EPHEMERIS_TYPE": 0, "CLASSIFICATION_TYPE": "U", "NORAD_CAT_ID": 34529, "ELEMENT_SET_NO": 999, "REV_AT_EPOCH": 88148, "BSTAR": 0.00016827646, "MEAN_MOTION_DOT": 5.56e-06, "MEAN_MOTION_DDOT": 0}, "tle": {"line1": "1 34529U 97051HW  25347.18622332  .00000556  00000+0  16828-3 0  9996", "line2": "2 34529  86.3641  35.2216 0004866 175.3623 184.7623 14.40616367881481"}}, "geometry": {"type": "Point", "coordinates": [21.069739229673445, -74.77084558535401]}}, {"type": "Feature", "properties": {"norad_id": 34538, "name": "IRIDIUM 33 DEB", "group": "iridium-33-debris", "lat": 43.52806576922085, "lon": -178.84790149932834, "alt_km": 769.413159521031, "timestamp": "2025-12-14T16:47:41.067907+00:00", "meta": {"OBJECT_NAME": "IRIDIUM 33 DEB", "OBJECT_ID": "1997-051JF", "EPOCH": "2025-12-12T19:29:58.055136", "MEAN_MOTION": 14.42648871, "ECCENTRICITY": 0.0032777, "INCLINATION": 86.2773, "RA_OF_ASC_NODE": 5.524, "ARG_OF_PERICENTER": 327.8022, "MEAN_ANOMALY": 92.8362, "EPHEMERIS_TYPE": 0, "CLASSIFICATION_TYPE": "U", "NORAD_CAT_ID": 34538, "ELEMENT_SET_NO": 999, "REV_AT_EPOCH": 87757, "BSTAR": 0.0014020322, "MEAN_MOTION_DOT": 4.708e-05, "MEAN_MOTION_DDOT": 0}, "tle": {"line1": "1 34538U 97051JF  25346.81247749  .00004708  00000+0  14020-2 0  9994", "line2": "2 34538  86.2773   5.5240 0032777 327.8022  92.8362 14.42648871877573"}}, "geometry": {"type": "Point", "coordinates": [-178.84790149932834, 43.52806576922085]}}, {"type": "Feature", "properties": {"norad_id": 34540, "name": "IRIDIUM 33 DEB", "group": "iridium-33-debris", "lat": 64.2459708585035, "lon": -45.60137319437711, "alt_km": 637.3172308496632, "timestamp": "2025-12-14T16:47:41.067917+00:00", "meta": {"OBJECT_NAME": "IRIDIUM 33 DEB", "OBJECT_ID": "1997-051JH", "EPOCH": "2025-12-13T21:13:41.307168", "MEAN_MOTION": 14.75357802, "ECCENTRICITY": 0.00166291, "INCLINATION": 86.3099, "RA_OF_ASC_NODE": 307.0836, "ARG_OF_PERICENTER": 155.1807, "MEAN_ANOMALY": 262.2011, "EPHEMERIS_TYPE": 0, "CLASSIFICATION_TYPE": "U", "NORAD_CAT_ID": 34540, "ELEMENT_SET_NO": 999, "REV_AT_EPOCH": 89038, "BSTAR": 0.0017757378, "MEAN_MOTION_DOT": 0.00012101, "MEAN_MOTION_DDOT": 0}, "tle": {"line1": "1 34540U 97051JH  25347.88450587  .00012101  00000+0  17757-2 0  9997", "line2": "2 34540  86.3099 307.0836 0016629 155.1807 262.2011 14.75357802890385"}}, "geometry": {"type": "Point", "coordinates": [-45.60137319437711, 64.2459708585035]}}, {"type": "Feature", "properties": {"norad_id": 34648, "name": "IRIDIUM 33 DEB", "group": "iridium-33-debris", "lat": 58.16299399645369, "lon": 95.31945505899593, "alt_km": 978.7443850837562, "timestamp": "2025-12-14T16:47:41.067927+00:00", "meta": {"OBJECT_NAME": "IRIDIUM 33 DEB", "OBJECT_ID": "1997-051JZ", "EPOCH": "2025-12-13T19:47:40.836480", "MEAN_MOTION": 14.11548438, "ECCENTRICITY": 0.01824148, "INCLINATION": 86.3898, "RA_OF_ASC_NODE": 281.5085, "ARG_OF_PERICENTER": 295.4937, "MEAN_ANOMALY": 62.7476, "EPHEMERIS_TYPE": 0, "CLASSIFICATION_TYPE": "U", "NORAD_CAT_ID": 34648, "ELEMENT_SET_NO": 999, "REV_AT_EPOCH": 84976, "BSTAR": 0.007354752, "MEAN_MOTION_DOT": 0.00015643, "MEAN_MOTION_DDOT": 0}, "tle": {"line1": "1 34648U 97051JZ  25347.82477820  .00015643  00000+0  73548-2 0  9993", "line2": "2 34648  86.3898 281.5085 0182414 295.4937  62.7476 14.11548438849762"}}, "geometry": {"type": "Point", "coordinates": [95.31945505899593, 58.16299399645369]}}, {"type": "Feature", "properties": {"norad_id": 34651, "name": "IRIDIUM 33 DEB", "group": "iridium-33-debris", "lat": -77.4810237104143, "lon": 122.71841610319595, "alt_km": 801.4762192452699, "timestamp": "2025-12-14T16:47:41.067939+00:00", "meta": {"OBJECT_NAME": "IRIDIUM 33 DEB", "OBJECT_ID": "1997-051KC", "EPOCH": "2025-12-13T20:57:14.690016", "MEAN_MOTION": 14.25844913, "ECCENTRICITY": 0.01421121, "INCLINATION": 86.2827, "RA_OF_ASC_NODE": 140.0953, "ARG_OF_PERICENTER": 200.3325, "MEAN_ANOMALY": 159.2175, "EPHEMERIS_TYPE": 0, "CLASSIFICATION_TYPE": "U", "NORAD_CAT_ID": 34651, "ELEMENT_SET_NO": 999, "REV_AT_EPOCH": 85912, "BSTAR": 0.0036592158, "MEAN_MOTION_DOT": 9.701e-05, "MEAN_MOTION_DDOT": 0}, "tle": {"line1": "1 34651U 97051KC  25347.87308669  .00009701  00000+0  36592-2 0  9992", "line2": "2 34651  86.2827 140.0953 0142112 200.3325 159.2175 14.25844913859128"}}, "geometry": {"type": "Point", "coordinates": [122.71841610319595, -77.4810237104143]}}, {"type": "Feature", "properties": {"norad_id": 34652, "name": "IRIDIUM 33 DEB", "group": "iridium-33-debris", "lat": -46.441004157942906, "lon": 162.998024894489, "alt_km": 685.553293622982, "timestamp": "2025-12-14T16:47:41.067949+00:00", "meta": {"OBJECT_NAME": "IRIDIUM 33 DEB", "OBJECT_ID": "1997-051KD", "EPOCH": "2025-12-13T23:36:33.899616", "MEAN_MOTION": 14.62075678, "ECCENTRICITY": 0.00258131, "INCLINATION": 86.3313, "RA_OF_ASC_NODE": 339.4479, "ARG_OF_PERICENTER": 293.8029, "MEAN_ANOMALY": 126.4351, "EPHEMERIS_TYPE": 0, "CLASSIFICATION_TYPE": "U", "NORAD_CAT_ID": 34652, "ELEMENT_SET_NO": 999, "REV_AT_EPOCH": 88502, "BSTAR": 0.0011103852, "MEAN_MOTION_DOT": 5.623e-05, "MEAN_MOTION_DDOT": 0}, "tle": {"line1": "1 34652U 97051KD  25347.98372569  .00005623  00000+0  11104-2 0  9996", "line2": "2 34652  86.3313 339.4479 0025813 293.8029 126.4351 14.62075678885028"}}, "geometry": {"type": "Point", "coordinates": [162.998024894489, -46.441004157942906]}}, {"type": "Feature", "properties": {"norad_id": 34690, "name": "IRIDIUM 33 DEB", "group": "iridium-33-debris", "lat": 40.33553792728816, "lon": 39.22229422565821, "alt_km": 698.6790812163981, "timestamp": "2025-12-14T16:47:41.067959+00:00", "meta": {"OBJECT_NAME": "IRIDIUM 33 DEB", "OBJECT_ID": "1997-051KM", "EPOCH": "2025-12-13T14:54:06.857280", "MEAN_MOTION": 14.55100621, "ECCENTRICITY": 0.00107565, "INCLINATION": 86.3785, "RA_OF_ASC_NODE": 36.6083, "ARG_OF_PERICENTER": 26.8254, "MEAN_ANOMALY": 125.7841, "EPHEMERIS_TYPE": 0, "CLASSIFICATION_TYPE": "U", "NORAD_CAT_ID": 34690, "ELEMENT_SET_NO": 999, "REV_AT_EPOCH": 88107, "BSTAR": 0.00059932597, "MEAN_MOTION_DOT": 2.608e-05, "MEAN_MOTION_DDOT": 0}, "tle": {"line1": "1 34690U 97051KM  25347.62091270  .00002608  00000+0  59933-3 0  9999", "line2": "2 34690  86.3785  36.6083 0010756  26.8254 125.7841 14.55100621881070"}}, "geometry": {"type": "Point", "coordinates": [39.22229422565821, 40.33553792728816]}}, {"type": "Feature", "properties": {"norad_id": 34693, "name": "IRIDIUM 33 DEB", "group": "iridium-33-debris", "lat": -63.72266540791011, "lon": 130.3724321740454, "alt_km": 496.36988024276343, "timestamp": "2025-12-14T16:47:41.067969+00:00", "meta": {"OBJECT_NAME": "IRIDIUM 33 DEB", "OBJECT_ID": "1997-051KQ", "EPOCH": "2025-12-13T21:06:52.559136", "MEAN_MOTION": 15.28305314, "ECCENTRICITY": 0.00133969, "INCLINATION": 86.305, "RA_OF_ASC_NODE": 303.2591, "ARG_OF_PERICENTER": 51.3124, "MEAN_ANOMALY": 3.8172, "EPHEMERIS_TYPE": 0, "CLASSIFICATION_TYPE": "U", "NORAD_CAT_ID": 34693, "ELEMENT_SET_NO": 999, "REV_AT_EPOCH": 88932, "BSTAR": 0.0049107744, "MEAN_MOTION_DOT": 0.00137946, "MEAN_MOTION_DDOT": 0}, "tle": {"line1": "1 34693U 97051KQ  25347.87977499  .00137946  00000+0  49108-2 0  9991", "line2": "2 34693  86.3050 303.2591 0013396  51.3124   3.8172 15.28305314889323"}}, "geometry": {"type": "Point", "coordinates": [130.3724321740454, -63.72266540791011]}}, {"type": "Feature", "properties": {"norad_id": 34696, "name": "IRIDIUM 33 DEB", "group": "iridium-33-debris", "lat": -70.53404193843448, "lon": -142.5085269723925, "alt_km": 683.3337029145096, "timestamp": "2025-12-14T16:47:41.067979+00:00", "meta": {"OBJECT_NAME": "IRIDIUM 33 DEB", "OBJECT_ID": "1997-051KT", "EPOCH": "2025-12-13T03:54:02.435616", "MEAN_MOTION": 14.65143747, "ECCENTRICITY": 0.00741248, "INCLINATION": 86.1855, "RA_OF_ASC_NODE": 27.3258, "ARG_OF_PERICENTER": 165.9902, "MEAN_ANOMALY": 260.687, "EPHEMERIS_TYPE": 0, "CLASSIFICATION_TYPE": "U", "NORAD_CAT_ID": 34696, "ELEMENT_SET_NO": 999, "REV_AT_EPOCH": 86679, "BSTAR": 0.0067723801, "MEAN_MOTION_DOT": 0.00038084, "MEAN_MOTION_DDOT": 0}, "tle": {"line1": "1 34696U 97051KT  25347.16252819  .00038084  00000+0  67724-2 0  9995", "line2": "2 34696  86.1855  27.3258 0074124 165.9902 260.6870 14.65143747866797"}}, "geometry": {"type": "Point", "coordinates": [-142.5085269723925, -70.53404193843448]}}, {"type": "Feature", "properties": {"norad_id": 34765, "name": "IRIDIUM 33 DEB", "group": "iridium-33-debris", "lat": -33.76817202976318, "lon": 29.467897472739867, "alt_km": 768.9348739587813, "timestamp": "2025-12-14T16:47:41.067989+00:00", "meta": {"OBJECT_NAME": "IRIDIUM 33 DEB", "OBJECT_ID": "1997-051LJ", "EPOCH": "2025-12-13T02:44:34.828800", "MEAN_MOTION": 14.40467179, "ECCENTRICITY": 0.00154785, "INCLINATION": 86.3397, "RA_OF_ASC_NODE": 32.601, "ARG_OF_PERICENTER": 210.1302, "MEAN_ANOMALY": 179.3412, "EPHEMERIS_TYPE": 0, "CLASSIFICATION_TYPE": "U", "NORAD_CAT_ID": 34765, "ELEMENT_SET_NO": 999, "REV_AT_EPOCH": 87619, "BSTAR": 0.00062555047, "MEAN_MOTION_DOT": 2.01e-05, "MEAN_MOTION_DDOT": 0}, "tle": {"line1": "1 34765U 97051LJ  25347.11429200  .00002010  00000+0  62555-3 0  9995", "line2": "2 34765  86.3397  32.6010 0015478 210.1302 179.3412 14.40467179876190"}}, "geometry": {"type": "Point", "coordinates": [29.467897472739867, -33.76817202976318]}}]}